start=new Date('2023-02-22T00:00:00.000Z').valueOf();
sats=[{"BSTAR":"-0.00008554700000","OBJECT_NAME":"STARLINK-2613","SEMIMAJOR_AXIS":"6925.355","MEAN_ANOMALY":"290.7182","FILE":"3821329","CLASSIFICATION_TYPE":"U","ECCENTRICITY":"0.00020460","OBJECT_ID":"2021-038A","GP_ID":"226331009","MEAN_MOTION_DOT":"-0.00001556","TLE_LINE1":"1 48353U 21038A   23052.89343526 -.00001556  00000-0 -85547-4 0  9991","PERIAPSIS":"545.803","REF_FRAME":"TEME","APOAPSIS":"548.637","DECAY_DATE":null,"TIME_SYSTEM":"UTC","RCS_SIZE":"LARGE","PERIOD":"95.592","MEAN_MOTION":"15.06397868","ARG_OF_PERICENTER":"69.4027","TLE_LINE2":"2 48353  53.0542 312.6687 0002046  69.4027 290.7182 15.06397868 99456","NORAD_CAT_ID":"48353","OBJECT_TYPE":"PAYLOAD","MEAN_MOTION_DDOT":"0.0000000000000","REV_AT_EPOCH":"9945","LAUNCH_DATE":"2021-05-04","ELEMENT_SET_NO":"999","SITE":"AFETR","CENTER_NAME":"EARTH","COUNTRY_CODE":"US","EPHEMERIS_TYPE":"0","MEAN_ELEMENT_THEORY":"SGP4","EPOCH":"2023-02-21T21:26:32.806464","RA_OF_ASC_NODE":"312.6687","INCLINATION":"53.0542"},{"EPOCH":"2023-02-21T21:21:15.659712","RA_OF_ASC_NODE":"312.6807","INCLINATION":"53.0535","COUNTRY_CODE":"US","EPHEMERIS_TYPE":"0","MEAN_ELEMENT_THEORY":"SGP4","ELEMENT_SET_NO":"999","LAUNCH_DATE":"2021-05-04","SITE":"AFETR","CENTER_NAME":"EARTH","NORAD_CAT_ID":"48354","OBJECT_TYPE":"PAYLOAD","MEAN_MOTION_DDOT":"0.0000000000000","REV_AT_EPOCH":"9945","RCS_SIZE":"LARGE","PERIOD":"95.592","ARG_OF_PERICENTER":"82.0894","MEAN_MOTION":"15.06400376","TLE_LINE2":"2 48354  53.0535 312.6807 0001084  82.0894 278.0218 15.06400376 99455","MEAN_MOTION_DOT":"0.00017259","GP_ID":"226329757","TLE_LINE1":"1 48354U 21038B   23052.88976458  .00017259  00000-0  11747-2 0  9991","DECAY_DATE":null,"REF_FRAME":"TEME","PERIAPSIS":"546.462","APOAPSIS":"547.963","TIME_SYSTEM":"UTC","ECCENTRICITY":"0.00010840","OBJECT_ID":"2021-038B","SEMIMAJOR_AXIS":"6925.347","OBJECT_NAME":"STARLINK-2674","BSTAR":"0.00117470000000","MEAN_ANOMALY":"278.0218","FILE":"3821329","CLASSIFICATION_TYPE":"U"},{"ELEMENT_SET_NO":"999","LAUNCH_DATE":"2021-05-04","SITE":"AFETR","CENTER_NAME":"EARTH","NORAD_CAT_ID":"48355","OBJECT_TYPE":"PAYLOAD","MEAN_MOTION_DDOT":"0.0000000000000","REV_AT_EPOCH":"9945","EPOCH":"2023-02-21T21:15:56.328768","RA_OF_ASC_NODE":"312.7036","INCLINATION":"53.0532","COUNTRY_CODE":"US","EPHEMERIS_TYPE":"0","MEAN_ELEMENT_THEORY":"SGP4","ECCENTRICITY":"0.00014210","OBJECT_ID":"2021-038C","SEMIMAJOR_AXIS":"6925.374","BSTAR":"0.00033680000000","OBJECT_NAME":"STARLINK-2635","FILE":"3821329","MEAN_ANOMALY":"252.2675","CLASSIFICATION_TYPE":"U","RCS_SIZE":"LARGE","PERIOD":"95.593","ARG_OF_PERICENTER":"107.8469","MEAN_MOTION":"15.06391671","TLE_LINE2":"2 48355  53.0532 312.7036 0001421 107.8469 252.2675 15.06391671 99455","MEAN_MOTION_DOT":"0.00004738","GP_ID":"226330007","TLE_LINE1":"1 48355U 21038C   23052.88606862  .00004738  00000-0  33680-3 0  9990","DECAY_DATE":null,"REF_FRAME":"TEME","PERIAPSIS":"546.255","APOAPSIS":"548.223","TIME_SYSTEM":"UTC"},{"SITE":"AFETR","CENTER_NAME":"EARTH","LAUNCH_DATE":"2021-05-04","ELEMENT_SET_NO":"999","MEAN_MOTION_DDOT":"0.0000000000000","REV_AT_EPOCH":"9945","NORAD_CAT_ID":"48356","OBJECT_TYPE":"PAYLOAD","INCLINATION":"53.0541","EPOCH":"2023-02-21T21:10:37.985376","RA_OF_ASC_NODE":"312.7183","EPHEMERIS_TYPE":"0","MEAN_ELEMENT_THEORY":"SGP4","COUNTRY_CODE":"US","ECCENTRICITY":"0.00012760","OBJECT_ID":"2021-038D","CLASSIFICATION_TYPE":"U","BSTAR":"0.00121280000000","OBJECT_NAME":"STARLINK-2637","SEMIMAJOR_AXIS":"6925.416","MEAN_ANOMALY":"237.9483","FILE":"3821329","MEAN_MOTION":"15.06377917","ARG_OF_PERICENTER":"122.1630","TLE_LINE2":"2 48356  53.0541 312.7183 0001276 122.1630 237.9483 15.06377917 99451","RCS_SIZE":"LARGE","PERIOD":"95.594","PERIAPSIS":"546.398","APOAPSIS":"548.165","REF_FRAME":"TEME","DECAY_DATE":null,"TIME_SYSTEM":"UTC","GP_ID":"226330759","MEAN_MOTION_DOT":"0.00017818","TLE_LINE1":"1 48356U 21038D   23052.88238409  .00017818  00000-0  12128-2 0  9995"},{"COUNTRY_CODE":"US","MEAN_ELEMENT_THEORY":"SGP4","EPHEMERIS_TYPE":"0","RA_OF_ASC_NODE":"312.7556","EPOCH":"2023-02-21T21:09:16.532640","INCLINATION":"53.0525","OBJECT_TYPE":"PAYLOAD","NORAD_CAT_ID":"48357","REV_AT_EPOCH":"9945","MEAN_MOTION_DDOT":"0.0000000000000","LAUNCH_DATE":"2021-05-04","ELEMENT_SET_NO":"999","CENTER_NAME":"EARTH","SITE":"AFETR","TLE_LINE1":"1 48357U 21038E   23052.88144135  .00017297  00000-0  11774-2 0  9995","GP_ID":"226331509","MEAN_MOTION_DOT":"0.00017297","TIME_SYSTEM":"UTC","PERIAPSIS":"546.432","APOAPSIS":"548.022","REF_FRAME":"TEME","DECAY_DATE":null,"PERIOD":"95.592","RCS_SIZE":"LARGE","TLE_LINE2":"2 48357  53.0525 312.7556 0001148  85.3369 274.7751 15.06395636 99450","MEAN_MOTION":"15.06395636","ARG_OF_PERICENTER":"85.3369","FILE":"3821329","MEAN_ANOMALY":"274.7751","BSTAR":"0.00117740000000","OBJECT_NAME":"STARLINK-2636","SEMIMAJOR_AXIS":"6925.362","CLASSIFICATION_TYPE":"U","OBJECT_ID":"2021-038E","ECCENTRICITY":"0.00011480"},{"CENTER_NAME":"EARTH","SITE":"AFETR","LAUNCH_DATE":"2021-05-04","ELEMENT_SET_NO":"999","REV_AT_EPOCH":"9944","MEAN_MOTION_DDOT":"0.0000000000000","OBJECT_TYPE":"PAYLOAD","NORAD_CAT_ID":"48358","INCLINATION":"53.0528","RA_OF_ASC_NODE":"312.7551","EPOCH":"2023-02-21T21:00:00.687744","MEAN_ELEMENT_THEORY":"SGP4","EPHEMERIS_TYPE":"0","COUNTRY_CODE":"US","OBJECT_ID":"2021-038F","ECCENTRICITY":"0.00011660","CLASSIFICATION_TYPE":"U","FILE":"3821329","MEAN_ANOMALY":"273.6629","OBJECT_NAME":"STARLINK-2624","BSTAR":"0.00086879000000","SEMIMAJOR_AXIS":"6925.406","TLE_LINE2":"2 48358  53.0528 312.7551 0001166  86.4493 273.6629 15.06381209 99441","MEAN_MOTION":"15.06381209","ARG_OF_PERICENTER":"86.4493","PERIOD":"95.593","RCS_SIZE":"LARGE","TIME_SYSTEM":"UTC","APOAPSIS":"548.079","PERIAPSIS":"546.464","REF_FRAME":"TEME","DECAY_DATE":null,"TLE_LINE1":"1 48358U 21038F   23052.87500796  .00012676  00000-0  86879-3 0  9999","GP_ID":"226330257","MEAN_MOTION_DOT":"0.00012676"},{"REV_AT_EPOCH":"9944","MEAN_MOTION_DDOT":"0.0000000000000","OBJECT_TYPE":"PAYLOAD","NORAD_CAT_ID":"48359","CENTER_NAME":"EARTH","SITE":"AFETR","LAUNCH_DATE":"2021-05-04","ELEMENT_SET_NO":"999","MEAN_ELEMENT_THEORY":"SGP4","EPHEMERIS_TYPE":"0","COUNTRY_CODE":"US","INCLINATION":"53.0528","RA_OF_ASC_NODE":"312.7725","EPOCH":"2023-02-21T20:54:42.447168","CLASSIFICATION_TYPE":"U","MEAN_ANOMALY":"256.7841","FILE":"3821329","OBJECT_NAME":"STARLINK-2628","BSTAR":"0.00206600000000","SEMIMAJOR_AXIS":"6925.293","OBJECT_ID":"2021-038G","ECCENTRICITY":"0.00015210","TIME_SYSTEM":"UTC","APOAPSIS":"548.212","PERIAPSIS":"546.105","REF_FRAME":"TEME","DECAY_DATE":null,"TLE_LINE1":"1 48359U 21038G   23052.87132462  .00030641  00000-0  20660-2 0  9998","GP_ID":"226330507","MEAN_MOTION_DOT":"0.00030641","TLE_LINE2":"2 48359  53.0528 312.7725 0001521 103.3318 256.7841 15.06418016 99440","MEAN_MOTION":"15.06418016","ARG_OF_PERICENTER":"103.3318","PERIOD":"95.591","RCS_SIZE":"LARGE"},{"COUNTRY_CODE":"US","MEAN_ELEMENT_THEORY":"SGP4","EPHEMERIS_TYPE":"0","RA_OF_ASC_NODE":"312.7891","EPOCH":"2023-02-21T20:49:24.282624","INCLINATION":"53.0531","OBJECT_TYPE":"PAYLOAD","NORAD_CAT_ID":"48360","REV_AT_EPOCH":"9944","MEAN_MOTION_DDOT":"0.0000000000000","LAUNCH_DATE":"2021-05-04","ELEMENT_SET_NO":"999","CENTER_NAME":"EARTH","SITE":"AFETR","TLE_LINE1":"1 48360U 21038H   23052.86764216  .00023239  00000-0  15744-2 0  9999","GP_ID":"226331259","MEAN_MOTION_DOT":"0.00023239","TIME_SYSTEM":"UTC","APOAPSIS":"548.056","PERIAPSIS":"546.452","REF_FRAME":"TEME","DECAY_DATE":null,"PERIOD":"95.593","RCS_SIZE":"LARGE","TLE_LINE2":"2 48360  53.0531 312.7891 0001158  54.0659 306.0437 15.06386842 99447","MEAN_MOTION":"15.06386842","ARG_OF_PERICENTER":"54.0659","MEAN_ANOMALY":"306.0437","FILE":"3821329","OBJECT_NAME":"STARLINK-2622","BSTAR":"0.00157440000000","SEMIMAJOR_AXIS":"6925.389","CLASSIFICATION_TYPE":"U","OBJECT_ID":"2021-038H","ECCENTRICITY":"0.00011580"},{"OBJECT_TYPE":"PAYLOAD","NORAD_CAT_ID":"48361","REV_AT_EPOCH":"9944","MEAN_MOTION_DDOT":"0.0000000000000","ELEMENT_SET_NO":"999","LAUNCH_DATE":"2021-05-04","CENTER_NAME":"EARTH","SITE":"AFETR","COUNTRY_CODE":"US","MEAN_ELEMENT_THEORY":"SGP4","EPHEMERIS_TYPE":"0","RA_OF_ASC_NODE":"312.7985","EPOCH":"2023-02-21T20:44:02.640480","INCLINATION":"53.0520","FILE":"3821329","MEAN_ANOMALY":"296.1424","SEMIMAJOR_AXIS":"6925.401","OBJECT_NAME":"STARLINK-2591","BSTAR":"0.00084206000000","CLASSIFICATION_TYPE":"U","OBJECT_ID":"2021-038J","ECCENTRICITY":"0.00010520","TLE_LINE1":"1 48361U 21038J   23052.86391945  .00012277  00000-0  84206-3 0  9995","MEAN_MOTION_DOT":"0.00012277","GP_ID":"226331010","TIME_SYSTEM":"UTC","DECAY_DATE":null,"PERIAPSIS":"546.538","APOAPSIS":"547.995","REF_FRAME":"TEME","PERIOD":"95.593","RCS_SIZE":"LARGE","TLE_LINE2":"2 48361  53.0520 312.7985 0001052  63.9673 296.1424 15.06382727 99441","ARG_OF_PERICENTER":"63.9673","MEAN_MOTION":"15.06382727"},{"OBJECT_TYPE":"PAYLOAD","NORAD_CAT_ID":"48362","REV_AT_EPOCH":"9945","MEAN_MOTION_DDOT":"0.0000000000000","ELEMENT_SET_NO":"999","LAUNCH_DATE":"2021-05-04","CENTER_NAME":"EARTH","SITE":"AFETR","COUNTRY_CODE":"US","MEAN_ELEMENT_THEORY":"SGP4","EPHEMERIS_TYPE":"0","RA_OF_ASC_NODE":"312.7355","EPOCH":"2023-02-21T21:31:53.023008","INCLINATION":"53.0550","FILE":"3821329","MEAN_ANOMALY":"252.9958","SEMIMAJOR_AXIS":"6925.348","BSTAR":"0.00085596000000","OBJECT_NAME":"STARLINK-2578","CLASSIFICATION_TYPE":"U","OBJECT_ID":"2021-038K","ECCENTRICITY":"0.00011260","TLE_LINE1":"1 48362U 21038K   23052.89714147  .00012491  00000-0  85596-3 0  9993","MEAN_MOTION_DOT":"0.00012491","GP_ID":"226329758","TIME_SYSTEM":"UTC","DECAY_DATE":null,"PERIAPSIS":"546.434","REF_FRAME":"TEME","APOAPSIS":"547.993","PERIOD":"95.592","RCS_SIZE":"LARGE","TLE_LINE2":"2 48362  53.0550 312.7355 0001126 107.1154 252.9958 15.06400036 99450","ARG_OF_PERICENTER":"107.1154","MEAN_MOTION":"15.06400036"}];
